NORAD_CAT_ID,OBJECT_NAME,OBJECT_TYPE,EPOCH,MEAN_MOTION,ECCENTRICITY,INCLINATION,RA_OF_ASC_NODE,ARG_OF_PERICENTER,MEAN_ANOMALY,BSTAR,MEAN_MOTION_DOT,MEAN_MOTION_DDOT,TLE_LINE0,TLE_LINE1,TLE_LINE2,SEMIMAJOR_AXIS,PERIOD,APOGEE,PERIGEE,DECAYED
51756.0,STARLINK-3513,PAYLOAD,2024-06-08 09:08:52,15.088418,0.0001859,53.2163,299.0899,85.0514,275.069,-2.4896e-05,-6.84e-06,0.0,0 STARLINK-3513,1 51756U 22016AU  24160.38116083 -.00000684  00000-0 -24896-4 0  9991,2 51756  53.2163 299.0899 0001859  85.0514 275.0690 15.08841800127192,6917.875,95.437,541.026,538.454,0.0
51756.0,STARLINK-3513,PAYLOAD,2024-06-08 17:05:47,15.08842581,0.0001727,53.2142,297.6016,92.0246,268.0944,3.6969e-05,3e-06,0.0,0 STARLINK-3513,1 51756U 22016AU  24160.71235972  .00000300  00000-0  36969-4 0  9994,2 51756  53.2142 297.6016 0001727  92.0246 268.0944 15.08842581128314,6917.872,95.437,540.932,538.543,0.0
51756.0,STARLINK-3513,PAYLOAD,2024-06-09 02:38:05,15.08852375,0.0001467,53.2186,295.8162,103.7942,256.3214,0.00015208,2.134e-05,0.0,0 STARLINK-3513,1 51756U 22016AU  24161.10978925  .00002134  00000-0  15208-3 0  9999,2 51756  53.2186 295.8162 0001467 103.7942 256.3214 15.08852375128376,6917.843,95.437,540.722,538.693,0.0
51756.0,STARLINK-3513,PAYLOAD,2024-06-09 12:10:26,15.08828586,0.0001769,53.2136,294.0327,103.988,256.1309,-4.1433e-06,-3.54e-06,0.0,0 STARLINK-3513,1 51756U 22016AU  24161.50724894 -.00000354  00000-0 -41433-5 0  9992,2 51756  53.2136 294.0327 0001769 103.9880 256.1309 15.08828586128430,6917.915,95.438,541.004,538.556,0.0
51756.0,STARLINK-3513,PAYLOAD,2024-06-09 15:21:12,15.08831703,0.000192,53.2131,293.4372,103.9447,256.1759,2.1281e-05,5e-07,0.0,0 STARLINK-3513,1 51756U 22016AU  24161.63972706  .00000050  00000-0  21281-4 0  9992,2 51756  53.2131 293.4372 0001920 103.9447 256.1759 15.08831703127383,6917.906,95.438,541.099,538.443,0.0
51756.0,STARLINK-3513,PAYLOAD,2024-06-09 16:56:35,15.08831072,0.0001811,53.2146,293.141,102.2858,257.8337,1.2434e-05,-9e-07,0.0,0 STARLINK-3513,1 51756U 22016AU  24161.70596831 -.00000090  00000-0  12434-4 0  9996,2 51756  53.2146 293.1410 0001811 102.2858 257.8337 15.08831072127396,6917.908,95.438,541.026,538.52,0.0
51756.0,STARLINK-3513,PAYLOAD,2024-06-10 13:36:35,15.08841983,0.0001678,53.2175,289.2765,100.806,259.3121,0.00014808,2.07e-05,0.0,0 STARLINK-3513,1 51756U 22016AU  24162.56708250  .00002070  00000-0  14808-3 0  9996,2 51756  53.2175 289.2765 0001678 100.8060 259.3121 15.08841983128590,6917.874,95.437,540.9,538.579,0.0
51756.0,STARLINK-3513,PAYLOAD,2024-06-10 15:11:59,15.08843506,0.000165,53.2178,288.9797,101.271,258.8467,0.00012243,1.661e-05,0.0,0 STARLINK-3513,1 51756U 22016AU  24162.63332213  .00001661  00000-0  12243-3 0  9992,2 51756  53.2178 288.9797 0001650 101.2710 258.8467 15.08843506127534,6917.87,95.437,540.876,538.593,0.0
51756.0,STARLINK-3513,PAYLOAD,2024-06-11 13:27:20,15.08880143,0.0001771,53.2175,284.8159,92.0369,268.0826,-0.0010978,-0.00017736,0.0,0 STARLINK-3513,1 51756U 22016AU  24163.56065544 -.00017736  00000-0 -10978-2 0  9999,2 51756  53.2175 284.8159 0001771  92.0369 268.0826 15.08880143127674,6917.758,95.435,540.848,538.398,0.0
51756.0,STARLINK-3513,PAYLOAD,2024-06-12 00:35:04,15.08853627,0.0001233,53.2171,282.7349,81.1981,278.9151,0.00029834,4.465e-05,0.0,0 STARLINK-3513,1 51756U 22016AU  24164.02435667  .00004465  00000-0  29834-3 0  9993,2 51756  53.2171 282.7349 0001233  81.1981 278.9151 15.08853627128815,6917.839,95.437,540.557,538.851,0.0
51756.0,STARLINK-3513,PAYLOAD,2024-06-12 13:18:10,15.08826911,0.0001484,53.2179,280.3582,93.2579,266.8583,-0.0002053,-3.553e-05,0.0,0 STARLINK-3513,1 51756U 22016AU  24164.55428869 -.00003553  00000-0 -20530-3 0  9990,2 51756  53.2179 280.3582 0001484  93.2579 266.8583 15.08826911128890,6917.92,95.438,540.812,538.759,0.0
51756.0,STARLINK-3513,PAYLOAD,2024-06-12 14:53:33,15.0882782,0.0001503,53.2181,280.0616,94.1501,265.9663,-0.000176,-3.087e-05,0.0,0 STARLINK-3513,1 51756U 22016AU  24164.62052894 -.00003087  00000-0 -17600-3 0  9995,2 51756  53.2181 280.0616 0001503  94.1501 265.9663 15.08827820127837,6917.918,95.438,540.822,538.743,0.0
51756.0,STARLINK-3513,PAYLOAD,2024-06-13 11:33:34,15.08839332,0.0001399,53.2179,276.1943,88.7087,271.4066,0.00020921,3.043e-05,0.0,0 STARLINK-3513,1 51756U 22016AU  24165.48164854  .00003043  00000-0  20921-3 0  9990,2 51756  53.2179 276.1943 0001399  88.7087 271.4066 15.08839332129038,6917.882,95.438,540.715,538.78,0.0
51756.0,STARLINK-3513,PAYLOAD,2024-06-13 14:44:20,15.0884212,0.0001394,53.2179,275.5992,81.9147,278.2003,0.00027555,4.1e-05,0.0,0 STARLINK-3513,1 51756U 22016AU  24165.61412862  .00004100  00000-0  27555-3 0  9995,2 51756  53.2179 275.5992 0001394  81.9147 278.2003 15.08842120127989,6917.874,95.437,540.703,538.775,0.0
51756.0,STARLINK-3513,PAYLOAD,2024-06-13 16:19:43,15.08843541,0.0001477,53.2176,275.3021,91.1196,268.9965,0.00044635,6.823e-05,0.0,0 STARLINK-3513,1 51756U 22016AU  24165.68036931  .00006823  00000-0  44635-3 0  9993,2 51756  53.2176 275.3021 0001477  91.1196 268.9965 15.08843541127998,6917.87,95.437,540.756,538.713,0.0
51756.0,STARLINK-3513,PAYLOAD,2024-06-14 14:35:07,15.08842189,0.0001298,53.2166,271.1378,85.5008,274.6132,0.00020507,2.977e-05,0.0,0 STARLINK-3513,1 51756U 22016AU  24166.60772906  .00002977  00000-0  20507-3 0  9993,2 51756  53.2166 271.1378 0001298  85.5008 274.6132 15.08842189128130,6917.874,95.437,540.637,538.841,0.0
51756.0,STARLINK-3513,PAYLOAD,2024-06-15 14:25:54,15.08847803,0.0001239,53.2161,266.6795,87.4209,272.6925,0.00021986,3.214e-05,0.0,0 STARLINK-3513,1 51756U 22016AU  24167.60132519  .00003214  00000-0  21986-3 0  9991,2 51756  53.2161 266.6795 0001239  87.4209 272.6925 15.08847803128288,6917.857,95.437,540.579,538.864,0.0
51756.0,STARLINK-3513,PAYLOAD,2024-06-16 12:41:18,15.08842427,0.0001511,53.2174,262.5151,96.416,263.7004,7.948e-05,9.77e-06,0.0,0 STARLINK-3513,1 51756U 22016AU  24168.52868545  .00000977  00000-0  79480-4 0  9994,2 51756  53.2174 262.5151 0001511  96.4160 263.7004 15.08842427128424,6917.873,95.437,540.783,538.693,0.0
51756.0,STARLINK-3513,PAYLOAD,2024-06-17 12:32:05,15.08834414,0.0001352,53.2164,258.0534,97.7176,262.3969,-5.4588e-05,-1.156e-05,0.0,0 STARLINK-3513,1 51756U 22016AU  24169.52228875 -.00001156  00000-0 -54588-4 0  9995,2 51756  53.2164 258.0534 0001352  97.7176 262.3969 15.08834414128570,6917.897,95.438,540.698,538.827,0.0
51756.0,STARLINK-3513,PAYLOAD,2024-06-18 12:22:52,15.08845572,0.0001297,53.216,253.5956,89.2403,270.8738,0.00037373,5.666e-05,0.0,0 STARLINK-3513,1 51756U 22016AU  24170.51588944  .00005666  00000-0  37373-3 0  9992,2 51756  53.2160 253.5956 0001297  89.2403 270.8738 15.08845572128723,6917.863,95.437,540.626,538.831,0.0
51756.0,STARLINK-3513,PAYLOAD,2024-06-19 05:52:07,15.08841562,0.0001326,53.2158,250.3249,90.0498,270.0646,0.00022141,3.238e-05,0.0,0 STARLINK-3513,1 51756U 22016AU  24171.24453156  .00003238  00000-0  22141-3 0  9999,2 51756  53.2158 250.3249 0001326  90.0498 270.0646 15.08841562129903,6917.876,95.437,540.658,538.823,0.0
51756.0,STARLINK-3513,PAYLOAD,2024-06-19 12:13:40,15.08832707,0.0001322,53.2161,249.1334,94.3292,265.7851,4.554e-06,-2.15e-06,0.0,0 STARLINK-3513,1 51756U 22016AU  24171.50949460 -.00000215  00000-0  45540-5 0  9999,2 51756  53.2161 249.1334 0001322  94.3292 265.7851 15.08832707128878,6917.903,95.438,540.682,538.853,0.0
51756.0,STARLINK-3513,PAYLOAD,2024-06-20 12:04:26,15.0884373,0.000124,53.2155,244.6709,81.9825,278.1308,8.428e-05,1.054e-05,0.0,0 STARLINK-3513,1 51756U 22016AU  24172.50309003  .00001054  00000-0  84280-4 0  9997,2 51756  53.2155 244.6709 0001240  81.9825 278.1308 15.08843730129021,6917.869,95.437,540.592,538.876,0.0
51756.0,STARLINK-3513,PAYLOAD,2024-06-21 13:30:37,15.08835202,0.0001375,53.2164,239.9148,85.0482,275.0667,8.8152e-05,1.115e-05,0.0,0 STARLINK-3513,1 51756U 22016AU  24173.56293734  .00001115  00000-0  88152-4 0  9997,2 51756  53.2164 239.9148 0001375  85.0482 275.0667 15.08835202130254,6917.895,95.438,540.711,538.809,0.0
51756.0,STARLINK-3513,PAYLOAD,2024-06-22 11:46:01,15.08841097,0.0001394,53.2174,235.7524,83.0145,277.1006,0.00010717,1.418e-05,0.0,0 STARLINK-3513,1 51756U 22016AU  24174.49029752  .00001418  00000-0  10717-3 0  9994,2 51756  53.2174 235.7524 0001394  83.0145 277.1006 15.08841097129327,6917.877,95.437,540.706,538.778,0.0
51756.0,STARLINK-3513,PAYLOAD,2024-06-23 13:12:12,15.0883483,0.0001345,53.2168,230.9928,82.1582,277.9563,4.6206e-05,4.47e-06,0.0,0 STARLINK-3513,1 51756U 22016AU  24175.55014601  .00000447  00000-0  46206-4 0  9993,2 51756  53.2168 230.9928 0001345  82.1582 277.9563 15.08834830130556,6917.896,95.438,540.692,538.831,0.0
51756.0,STARLINK-3513,PAYLOAD,2024-06-24 03:30:40,15.08843355,0.0001253,53.2162,228.3186,84.4685,275.645,0.00013338,1.836e-05,0.0,0 STARLINK-3513,1 51756U 22016AU  24176.14629827  .00001836  00000-0  13338-3 0  9993,2 51756  53.2162 228.3186 0001253  84.4685 275.6450 15.08843355130646,6917.87,95.437,540.602,538.868,0.0
51756.0,STARLINK-3513,PAYLOAD,2024-06-24 09:52:12,15.08847297,0.0001326,53.2161,227.13,79.4194,280.6948,0.00016619,2.359e-05,0.0,0 STARLINK-3513,1 51756U 22016AU  24176.41125530  .00002359  00000-0  16619-3 0  9991,2 51756  53.2161 227.1300 0001326  79.4194 280.6948 15.08847297129612,6917.858,95.437,540.64,538.806,0.0
51756.0,STARLINK-3513,PAYLOAD,2024-06-25 09:42:59,15.0884269,0.0001248,53.2156,222.6699,76.632,283.4812,9.6722e-05,1.252e-05,0.0,0 STARLINK-3513,1 51756U 22016AU  24177.40485887  .00001252  00000-0  96722-4 0  9990,2 51756  53.2156 222.6699 0001248  76.6320 283.4812 15.08842690130839,6917.872,95.437,540.601,538.874,0.0
51756.0,STARLINK-3513,PAYLOAD,2024-06-26 07:58:23,15.08845106,0.0001296,53.2154,218.5054,90.7019,269.4121,1.7022e-05,-1.7e-07,0.0,0 STARLINK-3513,1 51756U 22016AU  24178.33221624 -.00000017  00000-0  17022-4 0  9995,2 51756  53.2154 218.5054 0001296  90.7019 269.4121 15.08845106129909,6917.865,95.437,540.626,538.833,0.0
